{
  "norad_id": 54077,
  "name": "STARLINK-5171",
  "history": [
    {
      "epoch": "2026-03-28T19:22:54.808320",
      "apogee_km": 540.5429042656606,
      "perigee_km": 538.9421069480622,
      "latitude_deg": 35.78134289766624,
      "longitude_deg": 25.22756480006501,
      "semi_major_axis_km": 6917.879505606861,
      "eccentricity": 0.0001157,
      "inclination_deg": 53.2172,
      "raan_deg": 233.9322,
      "arg_perigee_deg": 90.7005,
      "mean_anomaly_deg": 269.412,
      "mean_motion_rev_day": 15.08840289
    }
  ]
}